AZTECHSAT-1             
1 45261U 98067RE  21244.38252970  .00047732  00000-0  37191-3 0  9994
2 45261  51.6339 291.7172 0001354 214.9580 145.1329 15.71215786 87292
RADSAT-U                
1 45262U 98067RF  21244.32691413  .00017160  00000-0  21147-3 0  9994
2 45262  51.6415 305.7573 0004007 238.6880 121.3721 15.60308774 87114
QARMAN                  
1 45263U 98067RG  21244.39776919  .00030559  00000-0  30409-3 0  9995
2 45263  51.6375 299.3810 0002896 192.8953 167.1969 15.65431780 87221
SORTIE                  
1 45264U 98067RH  21244.46470914  .00010373  00000-0  15202-3 0  9996
2 45264  51.6421 311.8958 0005934 196.4143 163.6657 15.56166561 87030
ICS-EF (ISS DEB)        
1 45265U 98067RJ  21244.41594919  .00005633  00000-0  95543-4 0  9994
2 45265  51.6416 318.2567 0004542 192.6398 167.4479 15.53143151 86621
G-SAT                   
1 45597U 98067RK  21244.43590966  .00018255  00000-0  22604-3 0  9993
2 45597  51.6400 307.1819 0002869 273.6441  86.4224 15.60136123 76466
QUETZAL-1               
1 45598U 98067RL  21244.42063048  .00025396  00000-0  28043-3 0  9996
2 45598  51.6393 304.8224 0002034 333.7637  26.3254 15.62892038 76429
RED-EYE 2 (MERLOT)      
1 45800U 98067RM  21244.50187268  .00007921  00000-0  12544-3 0  9995
2 45800  51.6423 316.6224 0000429 202.6874 157.4098 15.54418273 68512
RED-EYE 3 (CABERNET)    
1 45809U 98067RN  21244.50207101  .00007914  00000-0  12531-3 0  9991
2 45809  51.6423 316.6241 0000670 179.7044 180.3948 15.54424269 67498
DEMI                    
1 45916U 98067RP  21244.49025395  .00023377  00000-0  27269-3 0  9996
2 45916  51.6403 307.5603 0001911 100.6562 259.4648 15.61523972 64607
SPOC                    
1 46921U 98067RR  21244.54333424  .00012929  00000-0  18927-3 0  9996
2 46921  51.6423 316.1733 0002586  12.1311 347.9742 15.55950928 46701
BOBCAT-1                
1 46922U 98067RS  21244.45689087  .00019935  00000-0  26217-3 0  9991
2 46922  51.6422 314.1241 0002728  15.7760 344.3317 15.58469217 46683
NEUTRON-1               
1 46923U 98067RT  21244.50090136  .00012152  00000-0  17916-3 0  9999
2 46923  51.6422 316.6365 0002601  22.6086 337.5020 15.55823141 46723
1998-067RU              
1 46924U 98067RU  21244.44814067  .00042302  00000-0  43106-3 0  9990
2 46924  51.6388 308.7562 0003480  28.0525 332.0657 15.64669801 46794
LEMUR-2-BAXTER-OLIVER   
1 46925U 98067RV  21244.40421124  .00049648  00000-0  46930-3 0  9993
2 46925  51.6418 307.7716 0003355  33.5582 326.5626 15.66483657 46760
LEMUR-2-DJARA           
1 46926U 98067RW  21244.51713289  .00040710  00000-0  41697-3 0  9998
2 46926  51.6423 308.5285 0002626  35.6690 324.4480 15.64560391 46786
DESCENT                 
1 46927U 98067RX  21244.44205439  .00012107  00000-0  17849-3 0  9995
2 46927  51.6421 316.9897 0002748  37.9448 322.1737 15.55828158 46629
ISS DEB                 
1 47853U 98067RZ  21244.48000496  .00002452  00000-0  51212-4 0  9999
2 47853  51.6445 324.7195 0003002  22.8589 337.2533 15.49833517 27050
RSP-01                  
1 47925U 98067SB  21244.45992533  .00012324  00000-0  19942-3 0  9990
2 47925  51.6430 322.3469 0002372 337.4897  22.5989 15.53231283 26581
TAUSAT-1                
1 47926U 98067SC  21244.52508994  .00015079  00000-0  23452-3 0  9994
2 47926  51.6419 321.2779 0003492 331.9130  28.1672 15.54133001 26596
TSURU                   
1 47927U 98067SD  21244.47600324  .00011867  00000-0  19453-3 0  9996
2 47927  51.6434 322.4540 0002317 335.0913  24.9965 15.52910738 26588
STARS-EC                
1 47928U 98067SE  21244.51480908  .00017301  00000-0  27155-3 0  9993
2 47928  51.6426 321.9549 0006070  30.9123 329.2223 15.53752222 26577
MMSATS-1                
1 47976U 98067SJ  21244.57719835  .00005768  00000-0  10720-3 0  9990
2 47976  51.6465 323.8426 0002975  26.0585 334.0553 15.50471885 25351
SOYUZ-MS 18             
1 48159U 21029A   21244.57067774  .00004569  00000-0  92349-4 0  9992
2 48159  51.6441 325.0120 0003047 341.4395 157.1128 15.48581759300434
CREW DRAGON 2           
1 48209U 21030A   21244.57067774  .00004569  00000-0  92349-4 0  9990
2 48209  51.6441 325.0120 0003047 341.4395 157.1128 15.48581759300430
TIANHE                  
1 48274U 21035A   21244.30477339  .00009260  00000-0  10170-3 0  9994
2 48274  41.4695 178.5442 0006608 164.5134 333.4638 15.63244668 19602
TIANZHOU-2              
1 48803U 21046A   21244.30477339  .00009260  00000-0  10170-3 0  9994
2 48803  41.4695 178.5442 0006608 164.5134 333.4638 15.63244668 19600
RAMSAT                  
1 48850U 98067SL  21244.47869420  .00009102  00000-0  16317-3 0  9991
2 48850  51.6430 324.6958 0004734  59.4769 300.6687 15.50707847 12301
SOAR                    
1 48851U 98067SM  21244.49485281  .00029314  00000-0  46686-3 0  9992
2 48851  51.6408 324.0484 0005052  36.8240 323.3097 15.53003766 12356
SHENZHOU-12             
1 48852U 21053A   21244.30477339  .00009260  00000-0  10170-3 0  9996
2 48852  41.4695 178.5442 0006608 164.5134 333.4638 15.63244668 19604
BD-28                   
1 48867U 98067SN  21244.47512644  .00009667  00000-0  17154-3 0  9998
2 48867  51.6431 324.6741 0003291  86.7001 273.4365 15.50920500 11053
