OBJECT_NAME,OBJECT_ID,EPOCH,MEAN_MOTION,ECCENTRICITY,INCLINATION,RA_OF_ASC_NODE,ARG_OF_PERICENTER,MEAN_ANOMALY,EPHEMERIS_TYPE,CLASSIFICATION_TYPE,NORAD_CAT_ID,ELEMENT_SET_NO,REV_AT_EPOCH,BSTAR,MEAN_MOTION_DOT,MEAN_MOTION_DDOT
AZTECHSAT-1,1998-067RE,2021-09-01T09:10:50.566080,15.71215786,.0001354,51.6339,291.7172,214.9580,145.1329,0,U,45261,999,8729,.37191E-3,.47732E-3,0
RADSAT-U,1998-067RF,2021-09-01T07:50:45.380832,15.60308774,.0004007,51.6415,305.7573,238.6880,121.3721,0,U,45262,999,8711,.21147E-3,.1716E-3,0
QARMAN,1998-067RG,2021-09-01T09:32:47.258016,15.65431780,.0002896,51.6375,299.3810,192.8953,167.1969,0,U,45263,999,8722,.30409E-3,.30559E-3,0
SORTIE,1998-067RH,2021-09-01T11:09:10.869696,15.56166561,.0005934,51.6421,311.8958,196.4143,163.6657,0,U,45264,999,8703,.15202E-3,.10373E-3,0
ICS-EF (ISS DEB),1998-067RJ,2021-09-01T09:58:58.010016,15.53143151,.0004542,51.6416,318.2567,192.6398,167.4479,0,U,45265,999,8662,.95543E-4,.5633E-4,0
G-SAT,1998-067RK,2021-09-01T10:27:42.594624,15.60136123,.0002869,51.6400,307.1819,273.6441,86.4224,0,U,45597,999,7646,.22604E-3,.18255E-3,0
QUETZAL-1,1998-067RL,2021-09-01T10:05:42.473472,15.62892038,.0002034,51.6393,304.8224,333.7637,26.3254,0,U,45598,999,7642,.28043E-3,.25396E-3,0
RED-EYE 2 (MERLOT),1998-067RM,2021-09-01T12:02:41.799552,15.54418273,.0000429,51.6423,316.6224,202.6874,157.4098,0,U,45800,999,6851,.12544E-3,.7921E-4,0
RED-EYE 3 (CABERNET),1998-067RN,2021-09-01T12:02:58.935264,15.54424269,.000067,51.6423,316.6241,179.7044,180.3948,0,U,45809,999,6749,.12531E-3,.7914E-4,0
DEMI,1998-067RP,2021-09-01T11:45:57.941280,15.61523972,.0001911,51.6403,307.5603,100.6562,259.4648,0,U,45916,999,6460,.27269E-3,.23377E-3,0
SPOC,1998-067RR,2021-09-01T13:02:24.078336,15.55950928,.0002586,51.6423,316.1733,12.1311,347.9742,0,U,46921,999,4670,.18927E-3,.12929E-3,0
BOBCAT-1,1998-067RS,2021-09-01T10:57:55.371168,15.58469217,.0002728,51.6422,314.1241,15.7760,344.3317,0,U,46922,999,4668,.26217E-3,.19935E-3,0
NEUTRON-1,1998-067RT,2021-09-01T12:01:17.877504,15.55823141,.0002601,51.6422,316.6365,22.6086,337.5020,0,U,46923,999,4672,.17916E-3,.12152E-3,0
1998-067RU,1998-067RU,2021-09-01T10:45:19.353888,15.64669801,.000348,51.6388,308.7562,28.0525,332.0657,0,U,46924,999,4679,.43106E-3,.42302E-3,0
LEMUR-2-BAXTER-OLIVER,1998-067RV,2021-09-01T09:42:03.851136,15.66483657,.0003355,51.6418,307.7716,33.5582,326.5626,0,U,46925,999,4676,.4693E-3,.49648E-3,0
LEMUR-2-DJARA,1998-067RW,2021-09-01T12:24:40.281696,15.64560391,.0002626,51.6423,308.5285,35.6690,324.4480,0,U,46926,999,4678,.41697E-3,.4071E-3,0
DESCENT,1998-067RX,2021-09-01T10:36:33.499296,15.55828158,.0002748,51.6421,316.9897,37.9448,322.1737,0,U,46927,999,4662,.17849E-3,.12107E-3,0
ISS DEB,1998-067RZ,2021-09-01T11:31:12.428544,15.49833517,.0003002,51.6445,324.7195,22.8589,337.2533,0,U,47853,999,2705,.51212E-4,.2452E-4,0
RSP-01,1998-067SB,2021-09-01T11:02:17.548512,15.53231283,.0002372,51.6430,322.3469,337.4897,22.5989,0,U,47925,999,2658,.19942E-3,.12324E-3,0
TAUSAT-1,1998-067SC,2021-09-01T12:36:07.770816,15.54133001,.0003492,51.6419,321.2779,331.9130,28.1672,0,U,47926,999,2659,.23452E-3,.15079E-3,0
TSURU,1998-067SD,2021-09-01T11:25:26.679936,15.52910738,.0002317,51.6434,322.4540,335.0913,24.9965,0,U,47927,999,2658,.19453E-3,.11867E-3,0
STARS-EC,1998-067SE,2021-09-01T12:21:19.504512,15.53752222,.000607,51.6426,321.9549,30.9123,329.2223,0,U,47928,999,2657,.27155E-3,.17301E-3,0
MMSATS-1,1998-067SJ,2021-09-01T13:51:09.937440,15.50471885,.0002975,51.6465,323.8426,26.0585,334.0553,0,U,47976,999,2535,.1072E-3,.5768E-4,0
SOYUZ-MS 18,2021-029A,2021-09-01T13:41:46.556736,15.48581759,.0003047,51.6441,325.0120,341.4395,157.1128,0,U,48159,999,30043,.92349E-4,.4569E-4,0
CREW DRAGON 2,2021-030A,2021-09-01T13:41:46.556736,15.48581759,.0003047,51.6441,325.0120,341.4395,157.1128,0,U,48209,999,30043,.92349E-4,.4569E-4,0
TIANHE,2021-035A,2021-09-01T07:18:52.420896,15.63244668,.0006608,41.4695,178.5442,164.5134,333.4638,0,U,48274,999,1960,.1017E-3,.926E-4,0
TIANZHOU-2,2021-046A,2021-09-01T07:18:52.420896,15.63244668,.0006608,41.4695,178.5442,164.5134,333.4638,0,U,48803,999,1960,.1017E-3,.926E-4,0
RAMSAT,1998-067SL,2021-09-01T11:29:19.178880,15.50707847,.0004734,51.6430,324.6958,59.4769,300.6687,0,U,48850,999,1230,.16317E-3,.9102E-4,0
SOAR,1998-067SM,2021-09-01T11:52:35.282784,15.53003766,.0005052,51.6408,324.0484,36.8240,323.3097,0,U,48851,999,1235,.46686E-3,.29314E-3,0
SHENZHOU-12,2021-053A,2021-09-01T07:18:52.420896,15.63244668,.0006608,41.4695,178.5442,164.5134,333.4638,0,U,48852,999,1960,.1017E-3,.926E-4,0
BD-28,1998-067SP,2021-09-01T11:24:10.924416,15.50920500,.0003291,51.6431,324.6741,86.7001,273.4365,0,U,48867,999,1105,.17154E-3,.9667E-4,0
